{"fetched_at":"2026-07-12T05:52:32.048Z","source":"https://celestrak.org/NORAD/elements/gp.php?GROUP=kuiper&FORMAT=JSON","constellation":"kuiper","records":[{"OBJECT_NAME":"KUIPER-00438","OBJECT_ID":"2026-098X","EPOCH":"2026-07-11T20:00:03.000384","CLASSIFICATION_TYPE":"U","MEAN_MOTION":15.19940476,"ECCENTRICITY":0.0006218,"INCLINATION":51.8829,"RA_OF_ASC_NODE":310.0094,"ARG_OF_PERICENTER":276.1803,"MEAN_ANOMALY":248.965,"EPHEMERIS_TYPE":0,"NORAD_CAT_ID":68940,"ELEMENT_SET_NO":999,"REV_AT_EPOCH":544,"BSTAR":-0.056815,"MEAN_MOTION_DOT":-0.01143312,"MEAN_MOTION_DDOT":0},{"OBJECT_NAME":"KUIPER-00439","OBJECT_ID":"2026-098Y","EPOCH":"2026-07-11T20:00:03.000384","CLASSIFICATION_TYPE":"U","MEAN_MOTION":15.22936684,"ECCENTRICITY":0.0005355,"INCLINATION":51.8806,"RA_OF_ASC_NODE":310.1612,"ARG_OF_PERICENTER":256.6634,"MEAN_ANOMALY":222.065,"EPHEMERIS_TYPE":0,"NORAD_CAT_ID":68941,"ELEMENT_SET_NO":999,"REV_AT_EPOCH":371,"BSTAR":-0.058403,"MEAN_MOTION_DOT":-0.01272046,"MEAN_MOTION_DDOT":0},{"OBJECT_NAME":"KUIPER-00440","OBJECT_ID":"2026-098Z","EPOCH":"2026-07-11T12:18:15.347232","CLASSIFICATION_TYPE":"U","MEAN_MOTION":15.31452092,"ECCENTRICITY":0.0002796,"INCLINATION":51.8809,"RA_OF_ASC_NODE":311.2841,"ARG_OF_PERICENTER":286.106,"MEAN_ANOMALY":73.9616,"EPHEMERIS_TYPE":0,"NORAD_CAT_ID":68942,"ELEMENT_SET_NO":999,"REV_AT_EPOCH":1107,"BSTAR":0.00030129498,"MEAN_MOTION_DOT":0.00008932,"MEAN_MOTION_DDOT":0},{"OBJECT_NAME":"KUIPER-00442","OBJECT_ID":"2026-098AA","EPOCH":"2026-07-11T12:53:07.021248","CLASSIFICATION_TYPE":"U","MEAN_MOTION":15.34477609,"ECCENTRICITY":0.00036297,"INCLINATION":51.8764,"RA_OF_ASC_NODE":310.7093,"ARG_OF_PERICENTER":253.7907,"MEAN_ANOMALY":106.2679,"EPHEMERIS_TYPE":0,"NORAD_CAT_ID":68943,"ELEMENT_SET_NO":999,"REV_AT_EPOCH":1108,"BSTAR":0.000615677,"MEAN_MOTION_DOT":0.00020554,"MEAN_MOTION_DDOT":0},{"OBJECT_NAME":"KUIPER-00446","OBJECT_ID":"2026-098AB","EPOCH":"2026-07-11T21:05:51.482976","CLASSIFICATION_TYPE":"U","MEAN_MOTION":15.30697491,"ECCENTRICITY":0.0004321,"INCLINATION":51.8752,"RA_OF_ASC_NODE":309.2229,"ARG_OF_PERICENTER":249.2074,"MEAN_ANOMALY":110.8447,"EPHEMERIS_TYPE":0,"NORAD_CAT_ID":68944,"ELEMENT_SET_NO":999,"REV_AT_EPOCH":1113,"BSTAR":-0.013069,"MEAN_MOTION_DOT":-0.00374905,"MEAN_MOTION_DDOT":0},{"OBJECT_NAME":"KUIPER-00451","OBJECT_ID":"2026-098AC","EPOCH":"2026-07-11T20:00:03.000384","CLASSIFICATION_TYPE":"U","MEAN_MOTION":14.92805152,"ECCENTRICITY":0.0009717,"INCLINATION":51.8943,"RA_OF_ASC_NODE":314.3276,"ARG_OF_PERICENTER":237.4484,"MEAN_ANOMALY":267.6599,"EPHEMERIS_TYPE":0,"NORAD_CAT_ID":68945,"ELEMENT_SET_NO":999,"REV_AT_EPOCH":575,"BSTAR":-0.00032259,"MEAN_MOTION_DOT":-0.00003624,"MEAN_MOTION_DDOT":0},{"OBJECT_NAME":"KUIPER-00452","OBJECT_ID":"2026-098AD","EPOCH":"2026-07-11T12:57:40.933440","CLASSIFICATION_TYPE":"U","MEAN_MOTION":15.36073001,"ECCENTRICITY":0.00026179,"INCLINATION":51.8742,"RA_OF_ASC_NODE":309.9733,"ARG_OF_PERICENTER":254.9286,"MEAN_ANOMALY":105.141,"EPHEMERIS_TYPE":0,"NORAD_CAT_ID":68946,"ELEMENT_SET_NO":999,"REV_AT_EPOCH":1109,"BSTAR":0.00040267312,"MEAN_MOTION_DOT":0.00014008,"MEAN_MOTION_DDOT":0},{"OBJECT_NAME":"KUIPER-00453","OBJECT_ID":"2026-098AE","EPOCH":"2026-07-11T15:08:35.899584","CLASSIFICATION_TYPE":"U","MEAN_MOTION":15.37455507,"ECCENTRICITY":0.0003314,"INCLINATION":51.8762,"RA_OF_ASC_NODE":309.0961,"ARG_OF_PERICENTER":314.3232,"MEAN_ANOMALY":45.7483,"EPHEMERIS_TYPE":0,"NORAD_CAT_ID":68947,"ELEMENT_SET_NO":999,"REV_AT_EPOCH":1111,"BSTAR":0.00047351,"MEAN_MOTION_DOT":0.00017315,"MEAN_MOTION_DDOT":0},{"OBJECT_NAME":"KUIPER-00454","OBJECT_ID":"2026-098AF","EPOCH":"2026-07-11T20:00:03.000384","CLASSIFICATION_TYPE":"U","MEAN_MOTION":14.8454311,"ECCENTRICITY":0.0011365,"INCLINATION":51.8988,"RA_OF_ASC_NODE":315.3316,"ARG_OF_PERICENTER":223.7924,"MEAN_ANOMALY":225.1796,"EPHEMERIS_TYPE":0,"NORAD_CAT_ID":68948,"ELEMENT_SET_NO":999,"REV_AT_EPOCH":545,"BSTAR":-0.0020178,"MEAN_MOTION_DOT":-0.00017396,"MEAN_MOTION_DDOT":0},{"OBJECT_NAME":"KUIPER-00455","OBJECT_ID":"2026-098AG","EPOCH":"2026-07-11T20:00:03.000384","CLASSIFICATION_TYPE":"U","MEAN_MOTION":14.92658944,"ECCENTRICITY":0.0018421,"INCLINATION":51.8933,"RA_OF_ASC_NODE":314.525,"ARG_OF_PERICENTER":223.6305,"MEAN_ANOMALY":314.1716,"EPHEMERIS_TYPE":0,"NORAD_CAT_ID":68949,"ELEMENT_SET_NO":999,"REV_AT_EPOCH":487,"BSTAR":0.00020727,"MEAN_MOTION_DOT":0.00001912,"MEAN_MOTION_DDOT":0},{"OBJECT_NAME":"KUIPER-00458","OBJECT_ID":"2026-098AH","EPOCH":"2026-07-11T14:13:33.049632","CLASSIFICATION_TYPE":"U","MEAN_MOTION":15.36755458,"ECCENTRICITY":0.0002989,"INCLINATION":51.8758,"RA_OF_ASC_NODE":309.5938,"ARG_OF_PERICENTER":282.8178,"MEAN_ANOMALY":77.2475,"EPHEMERIS_TYPE":0,"NORAD_CAT_ID":68950,"ELEMENT_SET_NO":999,"REV_AT_EPOCH":1110,"BSTAR":0.00034556,"MEAN_MOTION_DOT":0.00012235,"MEAN_MOTION_DDOT":0},{"OBJECT_NAME":"KUIPER-00282","OBJECT_ID":"2026-118A","EPOCH":"2026-07-11T20:00:03.000384","CLASSIFICATION_TYPE":"U","MEAN_MOTION":15.22157988,"ECCENTRICITY":0.0011447,"INCLINATION":51.8703,"RA_OF_ASC_NODE":295.2153,"ARG_OF_PERICENTER":285.8826,"MEAN_ANOMALY":213.3708,"EPHEMERIS_TYPE":0,"NORAD_CAT_ID":69267,"ELEMENT_SET_NO":999,"REV_AT_EPOCH":565,"BSTAR":-0.047155,"MEAN_MOTION_DOT":-0.01011779,"MEAN_MOTION_DDOT":0},{"OBJECT_NAME":"KUIPER-00383","OBJECT_ID":"2026-118B","EPOCH":"2026-07-11T15:35:56.948352","CLASSIFICATION_TYPE":"U","MEAN_MOTION":15.32716859,"ECCENTRICITY":0.0010224,"INCLINATION":51.859,"RA_OF_ASC_NODE":295.8203,"ARG_OF_PERICENTER":270.0032,"MEAN_ANOMALY":89.9781,"EPHEMERIS_TYPE":0,"NORAD_CAT_ID":69268,"ELEMENT_SET_NO":999,"REV_AT_EPOCH":773,"BSTAR":0.0002186,"MEAN_MOTION_DOT":0.00006651,"MEAN_MOTION_DDOT":0},{"OBJECT_NAME":"KUIPER-00527","OBJECT_ID":"2026-118C","EPOCH":"2026-07-11T18:26:00.644928","CLASSIFICATION_TYPE":"U","MEAN_MOTION":15.32463595,"ECCENTRICITY":0.000865,"INCLINATION":51.8599,"RA_OF_ASC_NODE":295.1188,"ARG_OF_PERICENTER":267.3006,"MEAN_ANOMALY":92.6989,"EPHEMERIS_TYPE":0,"NORAD_CAT_ID":69269,"ELEMENT_SET_NO":999,"REV_AT_EPOCH":775,"BSTAR":-0.0014447,"MEAN_MOTION_DOT":-0.00046111,"MEAN_MOTION_DDOT":0},{"OBJECT_NAME":"KUIPER-00562","OBJECT_ID":"2026-118D","EPOCH":"2026-07-11T14:39:04.704768","CLASSIFICATION_TYPE":"U","MEAN_MOTION":15.38034851,"ECCENTRICITY":0.0000391,"INCLINATION":51.874,"RA_OF_ASC_NODE":294.869,"ARG_OF_PERICENTER":13.259,"MEAN_ANOMALY":346.8407,"EPHEMERIS_TYPE":0,"NORAD_CAT_ID":69270,"ELEMENT_SET_NO":999,"REV_AT_EPOCH":774,"BSTAR":0.0005336,"MEAN_MOTION_DOT":0.00019944,"MEAN_MOTION_DDOT":0},{"OBJECT_NAME":"KUIPER-00570","OBJECT_ID":"2026-118E","EPOCH":"2026-07-11T20:00:03.000384","CLASSIFICATION_TYPE":"U","MEAN_MOTION":15.07694354,"ECCENTRICITY":0.0007783,"INCLINATION":51.8762,"RA_OF_ASC_NODE":296.0375,"ARG_OF_PERICENTER":296.5616,"MEAN_ANOMALY":118.7054,"EPHEMERIS_TYPE":0,"NORAD_CAT_ID":69271,"ELEMENT_SET_NO":999,"REV_AT_EPOCH":574,"BSTAR":-0.00081326,"MEAN_MOTION_DOT":-0.0001283,"MEAN_MOTION_DDOT":0}]}
