[
  {
    "name": "KUIPER-00438",
    "noradId": "68940",
    "line1": "1 68940U 26098X   26192.83336806 -.01143312  00000+0 -56815-1 0  9991",
    "line2": "2 68940  51.8829 310.0094 0006218 276.1803 248.9650 15.19940476  5446"
  },
  {
    "name": "KUIPER-00439",
    "noradId": "68941",
    "line1": "1 68941U 26098Y   26192.83336806 -.01272046  00000+0 -58403-1 0  9994",
    "line2": "2 68941  51.8806 310.1612 0005355 256.6634 222.0650 15.22936684  3716"
  },
  {
    "name": "KUIPER-00440",
    "noradId": "68942",
    "line1": "1 68942U 26098Z   26192.51267763  .00008932  00000+0  30129-3 0  9990",
    "line2": "2 68942  51.8809 311.2841 0002796 286.1060  73.9616 15.31452092 11072"
  },
  {
    "name": "KUIPER-00442",
    "noradId": "68943",
    "line1": "1 68943U 26098AA  26192.53688682  .00020554  00000+0  61568-3 0  9995",
    "line2": "2 68943  51.8764 310.7093 0003629 253.7907 106.2679 15.34477609 11086"
  },
  {
    "name": "KUIPER-00446",
    "noradId": "68944",
    "line1": "1 68944U 26098AB  26192.87906809 -.00374905  00000+0 -13069-1 0  9992",
    "line2": "2 68944  51.8752 309.2229 0004321 249.2074 110.8447 15.30697491 11132"
  },
  {
    "name": "KUIPER-00451",
    "noradId": "68945",
    "line1": "1 68945U 26098AC  26192.83336806 -.00003624  00000+0 -32259-3 0  9994",
    "line2": "2 68945  51.8943 314.3276 0009717 237.4484 267.6599 14.92805152  5754"
  },
  {
    "name": "KUIPER-00452",
    "noradId": "68946",
    "line1": "1 68946U 26098AD  26192.54005710  .00014008  00000+0  40267-3 0  9994",
    "line2": "2 68946  51.8742 309.9733 0002617 254.9286 105.1410 15.36073001 11097"
  },
  {
    "name": "KUIPER-00453",
    "noradId": "68947",
    "line1": "1 68947U 26098AE  26192.63097106  .00017315  00000+0  47351-3 0  9990",
    "line2": "2 68947  51.8762 309.0961 0003314 314.3232  45.7483 15.37455507 11119"
  },
  {
    "name": "KUIPER-00454",
    "noradId": "68948",
    "line1": "1 68948U 26098AF  26192.83336806 -.00017396  00000+0 -20178-2 0  9994",
    "line2": "2 68948  51.8988 315.3316 0011365 223.7924 225.1796 14.84543110  5450"
  },
  {
    "name": "KUIPER-00455",
    "noradId": "68949",
    "line1": "1 68949U 26098AG  26192.83336806  .00001912  00000+0  20727-3 0  9991",
    "line2": "2 68949  51.8933 314.5250 0018421 223.6305 314.1716 14.92658944  4878"
  },
  {
    "name": "KUIPER-00458",
    "noradId": "68950",
    "line1": "1 68950U 26098AH  26192.59274363  .00012235  00000+0  34556-3 0  9990",
    "line2": "2 68950  51.8758 309.5938 0002989 282.8178  77.2475 15.36755458 11109"
  },
  {
    "name": "KUIPER-00282",
    "noradId": "69267",
    "line1": "1 69267U 26118A   26192.83336806 -.01011779  00000+0 -47155-1 0  9995",
    "line2": "2 69267  51.8703 295.2153 0011447 285.8826 213.3708 15.22157988  5657"
  },
  {
    "name": "KUIPER-00383",
    "noradId": "69268",
    "line1": "1 69268U 26118B   26192.64996468  .00006651  00000+0  21860-3 0  9998",
    "line2": "2 69268  51.8590 295.8203 0010224 270.0032  89.9781 15.32716859  7739"
  },
  {
    "name": "KUIPER-00527",
    "noradId": "69269",
    "line1": "1 69269U 26118C   26192.76806302 -.00046111  00000+0 -14447-2 0  9998",
    "line2": "2 69269  51.8599 295.1188 0008650 267.3006  92.6989 15.32463595  7753"
  },
  {
    "name": "KUIPER-00562",
    "noradId": "69270",
    "line1": "1 69270U 26118D   26192.61047112  .00019944  00000+0  53360-3 0  9990",
    "line2": "2 69270  51.8740 294.8690 0000391  13.2590 346.8407 15.38034851  7740"
  },
  {
    "name": "KUIPER-00570",
    "noradId": "69271",
    "line1": "1 69271U 26118E   26192.83336806 -.00012830  00000+0 -81326-3 0  9998",
    "line2": "2 69271  51.8762 296.0375 0007783 296.5616 118.7054 15.07694354  5744"
  }
]